[{"OBJECT_NAME":"HULIANWANG DIGUI-129","OBJECT_ID":"2025-311B","EPOCH":"2026-03-09T13:58:48.626400","MEAN_MOTION":13.29374784,"ECCENTRICITY":6.03e-6,"INCLINATION":50.0063,"RA_OF_ASC_NODE":112.8176,"ARG_OF_PERICENTER":336.9061,"MEAN_ANOMALY":23.1809,"EPHEMERIS_TYPE":0,"CLASSIFICATION_TYPE":"U","NORAD_CAT_ID":67237,"ELEMENT_SET_NO":999,"REV_AT_EPOCH":1009,"BSTAR":8.2704036e-5,"MEAN_MOTION_DOT":-8.6e-7,"MEAN_MOTION_DDOT":0},{"OBJECT_NAME":"DELTA 1 DEB","OBJECT_ID":"1975-052DE","EPOCH":"2026-03-09T14:11:22.113024","MEAN_MOTION":12.91297451,"ECCENTRICITY":0.0294606,"INCLINATION":99.6405,"RA_OF_ASC_NODE":287.7123,"ARG_OF_PERICENTER":50.82,"MEAN_ANOMALY":6.6944,"EPHEMERIS_TYPE":0,"CLASSIFICATION_TYPE":"U","NORAD_CAT_ID":21384,"ELEMENT_SET_NO":999,"REV_AT_EPOCH":63807,"BSTAR":0.00068372,"MEAN_MOTION_DOT":1.86e-6,"MEAN_MOTION_DDOT":0}]
